[{"OBJECT_NAME":"SHIJIAN-6 04B (SJ-6 04B)","OBJECT_ID":"2010-051B","EPOCH":"2026-03-09T23:26:29.179104","MEAN_MOTION":14.99121194,"ECCENTRICITY":0.00088219,"INCLINATION":97.8755,"RA_OF_ASC_NODE":73.3683,"ARG_OF_PERICENTER":293.8275,"MEAN_ANOMALY":66.2023,"EPHEMERIS_TYPE":0,"CLASSIFICATION_TYPE":"U","NORAD_CAT_ID":37180,"ELEMENT_SET_NO":999,"REV_AT_EPOCH":84081,"BSTAR":0.00010220627,"MEAN_MOTION_DOT":1.181e-5,"MEAN_MOTION_DDOT":0},{"OBJECT_NAME":"STARLINK-34497","OBJECT_ID":"2025-142A","EPOCH":"2026-03-09T23:15:11.045376","MEAN_MOTION":14.98336499,"ECCENTRICITY":0.00025502,"INCLINATION":70.0014,"RA_OF_ASC_NODE":313.7157,"ARG_OF_PERICENTER":269.4285,"MEAN_ANOMALY":90.6582,"EPHEMERIS_TYPE":0,"CLASSIFICATION_TYPE":"U","NORAD_CAT_ID":64696,"ELEMENT_SET_NO":999,"REV_AT_EPOCH":3968,"BSTAR":0.0007243704,"MEAN_MOTION_DOT":8.562e-5,"MEAN_MOTION_DDOT":0}]
